ONEWEB-0589             
1 54655U 22166P   25357.20291051  .00000118  00000+0  25380-3 0  9994
2 54655  87.9224 279.0914 0002224  97.7739 262.3647 13.21828094148295
ONEWEB-0590             
1 54656U 22166Q   25357.15176368 -.00000005  00000+0 -43543-4 0  9991
2 54656  87.9222 279.0788 0001354  84.5003 275.6286 13.21826362148274
ONEWEB-0591             
1 54657U 22166R   25357.16342440  .00000000  00000+0 -30940-4 0  9990
2 54657  87.9224 279.1000 0001691  79.9569 280.1756 13.21825380148300
ONEWEB-0592             
1 54658U 22166S   25357.16671516  .00000108  00000+0  22927-3 0  9993
2 54658  87.9236 279.0629 0001776  79.1747 280.9587 13.21826468148188
ONEWEB-0593             
1 54659U 22166T   25357.18974313  .00000056  00000+0  10427-3 0  9991
2 54659  87.9226 279.0843 0001894  76.9025 283.2320 13.21828240148294
ONEWEB-0594             
1 54660U 22166U   25357.20950203  .00000131  00000+0  28459-3 0  9996
2 54660  87.9226 279.0984 0001770  73.7962 286.3366 13.21826064148319
ONEWEB-0595             
1 54661U 22166V   25357.18645957  .00000037  00000+0  57002-4 0  9993
2 54661  87.9224 279.0758 0001605  72.0906 288.0402 13.21826046148280
ONEWEB-0596             
1 54662U 22166W   25357.23583060  .00000101  00000+0  21375-3 0  9991
2 54662  87.9227 279.0828 0001683  76.1063 284.0258 13.21825841148295
